NORAD_CAT_ID,OBJECT_NAME,OBJECT_TYPE,EPOCH,MEAN_MOTION,ECCENTRICITY,INCLINATION,RA_OF_ASC_NODE,ARG_OF_PERICENTER,MEAN_ANOMALY,BSTAR,MEAN_MOTION_DOT,MEAN_MOTION_DDOT,TLE_LINE0,TLE_LINE1,TLE_LINE2,SEMIMAJOR_AXIS,PERIOD,APOGEE,PERIGEE,DECAYED
55914.0,STARLINK-5856,PAYLOAD,2023-05-26 21:03:08,14.99305613,0.0003265,69.9987,350.9262,268.4946,91.5839,0.00015787,1.839e-05,0.0,0 STARLINK-5856,1 55914U 23037A   23146.87717681  .00001839  00000-0  15787-3 0  9992,2 55914  69.9987 350.9262 0003265 268.4946  91.5839 14.99305613 11712,6947.178,96.044,571.311,566.774,0.0
55914.0,STARLINK-5856,PAYLOAD,2023-05-26 22:39:12,14.99307373,0.000323,69.9988,350.758,267.5201,92.5589,0.00017466,2.044e-05,0.0,0 STARLINK-5856,1 55914U 23037A   23146.94389165  .00002044  00000-0  17466-3 0  9997,2 55914  69.9988 350.7580 0003230 267.5201  92.5589 14.99307373 11370,6947.172,96.044,571.281,566.793,0.0
55914.0,STARLINK-5856,PAYLOAD,2023-05-27 21:04:13,14.99301532,0.0003098,69.9992,348.3995,271.316,88.7645,-2.0348e-05,-3.43e-06,0.0,0 STARLINK-5856,1 55914U 23037A   23147.87793392 -.00000343  00000-0 -20348-4 0  9997,2 55914  69.9992 348.3995 0003098 271.3160  88.7645 14.99301532 11514,6947.19,96.045,571.207,566.903,0.0
55914.0,STARLINK-5856,PAYLOAD,2023-05-27 22:40:17,14.99301341,0.0003103,69.9991,348.231,271.3364,88.744,-2.326e-05,-3.78e-06,0.0,0 STARLINK-5856,1 55914U 23037A   23147.94465079 -.00000378  00000-0 -23260-4 0  9997,2 55914  69.9991 348.2310 0003103 271.3364  88.7440 14.99301341 11876,6947.191,96.045,571.211,566.9,0.0
55914.0,STARLINK-5856,PAYLOAD,2023-05-28 21:05:17,14.99306276,0.0002985,69.9993,345.8713,264.6742,95.4077,-3.7839e-05,-5.57e-06,0.0,0 STARLINK-5856,1 55914U 23037A   23148.87867942 -.00000557  00000-0 -37839-4 0  9991,2 55914  69.9993 345.8713 0002985 264.6742  95.4077 14.99306276 12010,6947.175,96.044,571.114,566.967,0.0
55914.0,STARLINK-5856,PAYLOAD,2023-05-28 22:41:22,14.99308011,0.0003173,69.9989,345.7034,269.8321,90.2475,-4.0951e-05,-5.95e-06,0.0,0 STARLINK-5856,1 55914U 23037A   23148.94539502 -.00000595  00000-0 -40951-4 0  9998,2 55914  69.9989 345.7034 0003173 269.8321  90.2475 14.99308011 11675,6947.17,96.044,571.239,566.831,0.0
55914.0,STARLINK-5856,PAYLOAD,2023-05-29 14:42:05,14.99299763,0.000294,69.9997,344.0192,263.8145,96.2679,-6.5403e-06,-1.74e-06,0.0,0 STARLINK-5856,1 55914U 23037A   23149.61256559 -.00000174  00000-0 -65403-5 0  9994,2 55914  69.9997 344.0192 0002940 263.8145  96.2679 14.99299763 12126,6947.196,96.045,571.103,567.018,0.0
55914.0,STARLINK-5856,PAYLOAD,2023-05-29 16:18:10,14.99299169,0.0002966,69.9995,343.8507,264.2916,95.7905,-1.4769e-05,-2.75e-06,0.0,0 STARLINK-5856,1 55914U 23037A   23149.67928302 -.00000275  00000-0 -14769-4 0  9992,2 55914  69.9995 343.8507 0002966 264.2916  95.7905 14.99299169 11787,6947.197,96.045,571.123,567.002,0.0
55914.0,STARLINK-5856,PAYLOAD,2023-05-29 21:06:23,14.99295236,0.0003128,69.9995,343.3456,269.8899,90.1902,3.5658e-05,3.42e-06,0.0,0 STARLINK-5856,1 55914U 23037A   23149.87943491  .00000342  00000-0  35658-4 0  9993,2 55914  69.9995 343.3456 0003128 269.8899  90.1902 14.99295236 12167,6947.21,96.045,571.248,566.901,0.0
55914.0,STARLINK-5856,PAYLOAD,2023-05-30 13:07:06,14.99302425,0.000309,69.999,341.6596,265.2092,94.8715,-4.2487e-06,-1.46e-06,0.0,0 STARLINK-5856,1 55914U 23037A   23150.54659907 -.00000146  00000-0 -42487-5 0  9998,2 55914  69.9990 341.6596 0003090 265.2092  94.8715 14.99302425 12264,6947.187,96.045,571.199,566.906,0.0
55914.0,STARLINK-5856,PAYLOAD,2023-05-30 19:31:23,14.99304334,0.0003165,69.9988,340.9857,267.581,92.4987,5.1895e-06,-3e-07,0.0,0 STARLINK-5856,1 55914U 23037A   23150.81346436 -.00000030  00000-0  51895-5 0  9992,2 55914  69.9988 340.9857 0003165 267.5810  92.4987 14.99304334 11950,6947.181,96.045,571.245,566.848,0.0
55914.0,STARLINK-5856,PAYLOAD,2023-05-30 21:07:27,14.99305389,0.0002955,69.999,340.8171,260.6981,99.3844,-2.9642e-06,-1.3e-06,0.0,0 STARLINK-5856,1 55914U 23037A   23150.88018051 -.00000130  00000-0 -29642-5 0  9995,2 55914  69.9990 340.8171 0002955 260.6981  99.3844 14.99305389 12310,6947.178,96.044,571.096,566.99,0.0
55914.0,STARLINK-5856,PAYLOAD,2023-05-31 13:08:11,14.99298492,0.000315,69.999,339.1323,267.7065,92.3734,4.5949e-06,-3.8e-07,0.0,0 STARLINK-5856,1 55914U 23037A   23151.54735220 -.00000038  00000-0  45949-5 0  9997,2 55914  69.9990 339.1323 0003150 267.7065  92.3734 14.99298492 12417,6947.2,96.045,571.253,566.876,0.0
55914.0,STARLINK-5856,PAYLOAD,2023-05-31 17:56:24,14.99298662,0.0003149,69.999,338.6269,267.6066,92.4733,6.1422e-06,-1.9e-07,0.0,0 STARLINK-5856,1 55914U 23037A   23151.74750259 -.00000019  00000-0  61422-5 0  9991,2 55914  69.9990 338.6269 0003149 267.6066  92.4733 14.99298662 12091,6947.199,96.045,571.252,566.876,0.0
55914.0,STARLINK-5856,PAYLOAD,2023-05-31 21:08:32,14.99300525,0.0003127,69.9989,338.29,267.5056,92.5745,2.5816e-05,2.22e-06,0.0,0 STARLINK-5856,1 55914U 23037A   23151.88093442  .00000222  00000-0  25816-4 0  9991,2 55914  69.9989 338.2900 0003127 267.5056  92.5745 14.99300525 12468,6947.193,96.045,571.231,566.886,0.0
55914.0,STARLINK-5856,PAYLOAD,2023-06-01 05:08:54,14.99299494,0.0003122,69.999,337.4475,267.7092,92.371,4.8335e-06,-3.5e-07,0.0,0 STARLINK-5856,1 55914U 23037A   23152.21451949 -.00000035  00000-0  48335-5 0  9994,2 55914  69.9990 337.4475 0003122 267.7092  92.3710 14.99299494 12513,6947.196,96.045,571.23,566.893,0.0
55914.0,STARLINK-5856,PAYLOAD,2023-06-01 21:09:37,14.99304119,0.0003083,69.9989,335.7623,268.8574,91.2232,1.2007e-05,5.3e-07,0.0,0 STARLINK-5856,1 55914U 23037A   23152.88168339  .00000053  00000-0  12007-4 0  9990,2 55914  69.9989 335.7623 0003083 268.8574  91.2232 14.99304119 12260,6947.182,96.045,571.189,566.905,0.0
55914.0,STARLINK-5856,PAYLOAD,2023-06-02 13:10:21,14.99299259,0.0003042,69.9988,334.0774,269.4401,90.641,-1.2679e-05,-2.49e-06,0.0,0 STARLINK-5856,1 55914U 23037A   23153.54885456 -.00000249  00000-0 -12679-4 0  9994,2 55914  69.9988 334.0774 0003042 269.4401  90.6410 14.99299259 12718,6947.197,96.045,571.175,566.949,0.0
55914.0,STARLINK-5856,PAYLOAD,2023-06-02 21:10:42,14.99298575,0.0003088,69.9988,333.2353,267.6192,92.4614,-2.4923e-05,-3.99e-06,0.0,0 STARLINK-5856,1 55914U 23037A   23153.88243929 -.00000399  00000-0 -24923-4 0  9995,2 55914  69.9988 333.2353 0003088 267.6192  92.4614 14.99298575 12760,6947.199,96.045,571.21,566.919,0.0
55914.0,STARLINK-5856,PAYLOAD,2023-06-03 13:11:26,14.99297987,0.0003099,69.9988,331.551,269.2244,90.856,-4.5429e-05,-6.5e-06,0.0,0 STARLINK-5856,1 55914U 23037A   23154.54960893 -.00000650  00000-0 -45429-4 0  9999,2 55914  69.9988 331.5510 0003099 269.2244  90.8560 14.99297987 12863,6947.201,96.045,571.219,566.913,0.0
55914.0,STARLINK-5856,PAYLOAD,2023-06-03 21:11:47,14.99299389,0.0003121,69.9988,330.7085,269.3098,90.7704,-4.3012e-05,-6.2e-06,0.0,0 STARLINK-5856,1 55914U 23037A   23154.88319230 -.00000620  00000-0 -43012-4 0  9992,2 55914  69.9988 330.7085 0003121 269.3098  90.7704 14.99299389 12918,6947.197,96.045,571.23,566.894,0.0
55914.0,STARLINK-5856,PAYLOAD,2023-06-04 14:48:35,14.99299655,0.0003195,69.9986,328.8549,269.7607,90.3186,3.8839e-05,3.81e-06,0.0,0 STARLINK-5856,1 55914U 23037A   23155.61707496  .00000381  00000-0  38839-4 0  9992,2 55914  69.9986 328.8549 0003195 269.7607  90.3186 14.99299655 13029,6947.196,96.045,571.281,566.841,0.0
55914.0,STARLINK-5856,PAYLOAD,2023-06-04 21:12:52,14.993022,0.0003193,69.9987,328.181,269.8854,90.194,5.2589e-05,5.5e-06,0.0,0 STARLINK-5856,1 55914U 23037A   23155.88394010  .00000550  00000-0  52589-4 0  9991,2 55914  69.9987 328.1810 0003193 269.8854  90.1940 14.99302200 13068,6947.188,96.045,571.271,566.835,0.0
55914.0,STARLINK-5856,PAYLOAD,2023-06-04 22:48:56,14.99303267,0.0003193,69.9987,328.0125,269.8186,90.2608,6.2939e-05,6.76e-06,0.0,0 STARLINK-5856,1 55914U 23037A   23155.95065585  .00000676  00000-0  62939-4 0  9990,2 55914  69.9987 328.0125 0003193 269.8186  90.2608 14.99303267 12722,6947.185,96.045,571.268,566.832,0.0
55914.0,STARLINK-5856,PAYLOAD,2023-06-05 13:13:35,14.99297663,0.0003209,69.9985,326.4953,269.2812,90.7979,3.9153e-05,3.85e-06,0.0,0 STARLINK-5856,1 55914U 23037A   23156.55111099  .00000385  00000-0  39153-4 0  9998,2 55914  69.9985 326.4953 0003209 269.2812  90.7979 14.99297663 13166,6947.202,96.045,571.296,566.838,0.0
55914.0,STARLINK-5856,PAYLOAD,2023-06-05 19:37:53,14.99300722,0.0003214,69.9986,325.8217,269.9187,90.1604,3.5708e-05,3.43e-06,0.0,0 STARLINK-5856,1 55914U 23037A   23156.81797653  .00000343  00000-0  35708-4 0  9999,2 55914  69.9986 325.8217 0003214 269.9187  90.1604 14.99300722 13206,6947.193,96.045,571.29,566.825,0.0
55914.0,STARLINK-5856,PAYLOAD,2023-06-06 11:38:36,14.99304064,0.0003164,69.9987,324.1367,270.1904,89.8893,9.7715e-06,2.6e-07,0.0,0 STARLINK-5856,1 55914U 23037A   23157.48514245  .00000026  00000-0  97715-5 0  9992,2 55914  69.9987 324.1367 0003164 270.1904  89.8893 14.99304064 13309,6947.182,96.045,571.245,566.849,0.0
55914.0,STARLINK-5856,PAYLOAD,2023-06-06 18:02:53,14.99305586,0.0003195,69.9988,323.4627,270.6558,89.4236,1.3089e-05,6.6e-07,0.0,0 STARLINK-5856,1 55914U 23037A   23157.75200789  .00000066  00000-0  13089-4 0  9992,2 55914  69.9988 323.4627 0003195 270.6558  89.4236 14.99305586 13346,6947.178,96.044,571.262,566.823,0.0
55914.0,STARLINK-5856,PAYLOAD,2023-06-06 21:15:01,14.99308242,0.000318,69.9988,323.1257,270.7353,89.3442,4.1282e-05,4.11e-06,0.0,0 STARLINK-5856,1 55914U 23037A   23157.88543835  .00000411  00000-0  41282-4 0  9998,2 55914  69.9988 323.1257 0003180 270.7353  89.3442 14.99308242 13014,6947.169,96.044,571.244,566.825,0.0
55914.0,STARLINK-5856,PAYLOAD,2023-06-07 18:03:58,14.99298225,0.0003081,69.9991,320.9366,268.1825,91.8982,-3.1498e-05,-4.79e-06,0.0,0 STARLINK-5856,1 55914U 23037A   23158.75276370 -.00000479  00000-0 -31498-4 0  9996,2 55914  69.9991 320.9366 0003081 268.1825  91.8982 14.99298225 13149,6947.2,96.045,571.206,566.925,0.0
